{
    "links": {
        "self": "http://www.neowsapp.com/rest/v1/neo/3601336?api_key=iIulBulltgU6a56xZRHN4H3l9WmuAYTsLGpBGhQ2"
    },
    "id": "3601336",
    "neo_reference_id": "3601336",
    "name": "(2012 EO10)",
    "designation": "2012 EO10",
    "nasa_jpl_url": "http://ssd.jpl.nasa.gov/sbdb.cgi?sstr=3601336",
    "absolute_magnitude_h": 24.5,
    "estimated_diameter": {
        "kilometers": {
            "estimated_diameter_min": 0.0334622374,
            "estimated_diameter_max": 0.0748238376
        },
        "meters": {
            "estimated_diameter_min": 33.4622374455,
            "estimated_diameter_max": 74.8238376074
        },
        "miles": {
            "estimated_diameter_min": 0.0207924639,
            "estimated_diameter_max": 0.0464933628
        },
        "feet": {
            "estimated_diameter_min": 109.7842471007,
            "estimated_diameter_max": 245.4850393757
        }
    },
    "is_potentially_hazardous_asteroid": false,
    "close_approach_data": [
        {
            "close_approach_date": "2012-04-12",
            "close_approach_date_full": "2012-Apr-12 11:52",
            "epoch_date_close_approach": 1334231520000,
            "relative_velocity": {
                "kilometers_per_second": "6.5826629375",
                "kilometers_per_hour": "23697.5865749794",
                "miles_per_hour": "14724.7587248809"
            },
            "miss_distance": {
                "astronomical": "0.0815956263",
                "lunar": "31.7406986307",
                "kilometers": "12206531.895795981",
                "miles": "7584787.2087912978"
            },
            "orbiting_body": "Earth"
        },
        {
            "close_approach_date": "2022-06-15",
            "close_approach_date_full": "2022-Jun-15 10:29",
            "epoch_date_close_approach": 1655288940000,
            "relative_velocity": {
                "kilometers_per_second": "19.7074749837",
                "kilometers_per_hour": "70946.9099411422",
                "miles_per_hour": "44083.650790928"
            },
            "miss_distance": {
                "astronomical": "0.4841220999",
                "lunar": "188.3234968611",
                "kilometers": "72423634.964967213",
                "miles": "45001959.9986170194"
            },
            "orbiting_body": "Earth"
        }
    ],
    "orbital_data": {
        "orbit_id": "7",
        "orbit_determination_date": "2017-04-06 08:50:32",
        "first_observation_date": "2012-03-15",
        "last_observation_date": "2012-04-19",
        "data_arc_in_days": 35,
        "observations_used": 29,
        "orbit_uncertainty": "7",
        "minimum_orbit_intersection": ".071678",
        "jupiter_tisserand_invariant": "3.436",
        "epoch_osculation": "2459000.5",
        "eccentricity": ".5249517494092939",
        "semi_major_axis": "2.244324007573413",
        "inclination": "2.243051151208909",
        "ascending_node_longitude": "322.0860276493385",
        "orbital_period": "1228.080285325265",
        "perihelion_distance": "1.066162193556472",
        "perihelion_argument": "249.6827842291953",
        "aphelion_distance": "3.422485821590353",
        "perihelion_time": "2458493.209063871550",
        "mean_anomaly": "148.7074902093006",
        "mean_motion": ".2931404439121436",
        "equinox": "J2000",
        "orbit_class": {
            "orbit_class_type": "AMO",
            "orbit_class_description": "Near-Earth asteroid orbits similar to that of 1221 Amor",
            "orbit_class_range": "1.017 AU < q (perihelion) < 1.3 AU"
        }
    },
    "is_sentry_object": false
}